{
  "type": "FeatureCollection",
  "features": [
    {
      "type": "Feature",
      "properties": {
        "norad_id": 46277,
        "name": "NEMO-HD",
        "group": "resource",
        "lat": -13.944389999488429,
        "lon": 59.907628232082196,
        "alt_km": 448.833557852402,
        "timestamp": "2025-12-25T03:55:55.964088+00:00",
        "meta_object_name": "NEMO-HD",
        "meta_object_id": "2020-061F",
        "meta_epoch": "2025-12-24T20:11:55.274208",
        "meta_mean_motion": 15.4057042,
        "meta_eccentricity": 0.000108,
        "meta_inclination": 97.2189,
        "meta_ra_of_asc_node": 57.7859,
        "meta_arg_of_pericenter": 52.5514,
        "meta_mean_anomaly": 307.5831,
        "meta_ephemeris_type": 0,
        "meta_classification_type": "U",
        "meta_norad_cat_id": 46277,
        "meta_element_set_no": 999,
        "meta_rev_at_epoch": 29510,
        "meta_bstar": 0.00028294,
        "meta_mean_motion_dot": 0.00011424,
        "meta_mean_motion_ddot": 0,
        "tle_line1": "1 46277U 20061F   25358.84161197  .00011424  00000+0  28294-3 0  9994",
        "tle_line2": "2 46277  97.2189  57.7859 0001080  52.5514 307.5831 15.40570420295108"
      },
      "geometry": {
        "type": "Point",
        "coordinates": [
          59.907628232082196,
          -13.944389999488429
        ]
      }
    },
    {
      "type": "Feature",
      "properties": {
        "norad_id": 46984,
        "name": "SENTINEL-6A",
        "group": "resource",
        "lat": 31.238827852596163,
        "lon": -59.14313103702772,
        "alt_km": 1338.3279951667473,
        "timestamp": "2025-12-25T03:55:55.964099+00:00",
        "meta_object_name": "SENTINEL-6A",
        "meta_object_id": "2020-086A",
        "meta_epoch": "2025-12-24T15:55:56.857728",
        "meta_mean_motion": 12.80930713,
        "meta_eccentricity": 0.0007761,
        "meta_inclination": 66.0399,
        "meta_ra_of_asc_node": 137.5413,
        "meta_arg_of_pericenter": 269.4223,
        "meta_mean_anomaly": 90.5903,
        "meta_ephemeris_type": 0,
        "meta_classification_type": "U",
        "meta_norad_cat_id": 46984,
        "meta_element_set_no": 999,
        "meta_rev_at_epoch": 23797,
        "meta_bstar": -9.0626e-06,
        "meta_mean_motion_dot": -6.3e-07,
        "meta_mean_motion_ddot": 0,
        "tle_line1": "1 46984U 20086A   25358.66385252 -.00000063  00000+0 -90626-5 0  9995",
        "tle_line2": "2 46984  66.0399 137.5413 0007761 269.4223  90.5903 12.80930713237977"
      },
      "geometry": {
        "type": "Point",
        "coordinates": [
          -59.14313103702772,
          31.238827852596163
        ]
      }
    },
    {
      "type": "Feature",
      "properties": {
        "norad_id": 48079,
        "name": "GAOFEN-12 02",
        "group": "resource",
        "lat": -60.00442315413224,
        "lon": 7.18552624857446,
        "alt_km": 636.1113453081189,
        "timestamp": "2025-12-25T03:55:55.964110+00:00",
        "meta_object_name": "GAOFEN-12 02",
        "meta_object_id": "2021-026A",
        "meta_epoch": "2025-12-24T21:43:11.603424",
        "meta_mean_motion": 14.80688887,
        "meta_eccentricity": 0.0003553,
        "meta_inclination": 97.9857,
        "meta_ra_of_asc_node": 352.853,
        "meta_arg_of_pericenter": 76.689,
        "meta_mean_anomaly": 283.4718,
        "meta_ephemeris_type": 0,
        "meta_classification_type": "U",
        "meta_norad_cat_id": 48079,
        "meta_element_set_no": 999,
        "meta_rev_at_epoch": 25597,
        "meta_bstar": 7.0598e-05,
        "meta_mean_motion_dot": 4.9e-06,
        "meta_mean_motion_ddot": 0,
        "tle_line1": "1 48079U 21026A   25358.90499541  .00000490  00000+0  70598-4 0  9998",
        "tle_line2": "2 48079  97.9857 352.8530 0003553  76.6890 283.4718 14.80688887255972"
      },
      "geometry": {
        "type": "Point",
        "coordinates": [
          7.18552624857446,
          -60.00442315413224
        ]
      }
    },
    {
      "type": "Feature",
      "properties": {
        "norad_id": 48268,
        "name": "PLEIADES NEO 3",
        "group": "resource",
        "lat": 49.476035809457706,
        "lon": 62.08486738939937,
        "alt_km": 618.8628409956536,
        "timestamp": "2025-12-25T03:55:55.964120+00:00",
        "meta_object_name": "PLEIADES NEO 3",
        "meta_object_id": "2021-034A",
        "meta_epoch": "2025-12-24T21:13:25.224672",
        "meta_mean_motion": 14.81670607,
        "meta_eccentricity": 0.0001315,
        "meta_inclination": 97.8943,
        "meta_ra_of_asc_node": 71.1511,
        "meta_arg_of_pericenter": 90.0173,
        "meta_mean_anomaly": 270.119,
        "meta_ephemeris_type": 0,
        "meta_classification_type": "U",
        "meta_norad_cat_id": 48268,
        "meta_element_set_no": 999,
        "meta_rev_at_epoch": 25184,
        "meta_bstar": -4.6152e-05,
        "meta_mean_motion_dot": -4.15e-06,
        "meta_mean_motion_ddot": 0,
        "tle_line1": "1 48268U 21034A   25358.88431973 -.00000415  00000+0 -46152-4 0  9997",
        "tle_line2": "2 48268  97.8943  71.1511 0001315  90.0173 270.1190 14.81670607251846"
      },
      "geometry": {
        "type": "Point",
        "coordinates": [
          62.08486738939937,
          49.476035809457706
        ]
      }
    },
    {
      "type": "Feature",
      "properties": {
        "norad_id": 49070,
        "name": "PLEIADES NEO 4",
        "group": "resource",
        "lat": -49.71396397119445,
        "lon": -117.99884104466189,
        "alt_km": 631.6845644110199,
        "timestamp": "2025-12-25T03:55:55.964133+00:00",
        "meta_object_name": "PLEIADES NEO 4",
        "meta_object_id": "2021-073E",
        "meta_epoch": "2025-12-24T05:49:33.460896",
        "meta_mean_motion": 14.8167211,
        "meta_eccentricity": 0.00013459,
        "meta_inclination": 97.8946,
        "meta_ra_of_asc_node": 70.5151,
        "meta_arg_of_pericenter": 92.647,
        "meta_mean_anomaly": 267.4897,
        "meta_ephemeris_type": 0,
        "meta_classification_type": "U",
        "meta_norad_cat_id": 49070,
        "meta_element_set_no": 999,
        "meta_rev_at_epoch": 23546,
        "meta_bstar": 1.7928738e-05,
        "meta_mean_motion_dot": 8.9e-07,
        "meta_mean_motion_ddot": 0,
        "tle_line1": "1 49070U 21073E   25358.24274839  .00000089  00000+0  17929-4 0  9993",
        "tle_line2": "2 49070  97.8946  70.5151 0001345  92.6470 267.4897 14.81672110235469"
      },
      "geometry": {
        "type": "Point",
        "coordinates": [
          -117.99884104466189,
          -49.71396397119445
        ]
      }
    },
    {
      "type": "Feature",
      "properties": {
        "norad_id": 49260,
        "name": "LANDSAT 9",
        "group": "resource",
        "lat": -49.345592797811626,
        "lon": -122.5822507556288,
        "alt_km": 709.9778146819972,
        "timestamp": "2025-12-25T03:55:55.964144+00:00",
        "meta_object_name": "LANDSAT 9",
        "meta_object_id": "2021-088A",
        "meta_epoch": "2025-12-24T18:38:23.131104",
        "meta_mean_motion": 14.57109853,
        "meta_eccentricity": 0.0001116,
        "meta_inclination": 98.2078,
        "meta_ra_of_asc_node": 66.7123,
        "meta_arg_of_pericenter": 93.3243,
        "meta_mean_anomaly": 266.8083,
        "meta_ephemeris_type": 0,
        "meta_classification_type": "U",
        "meta_norad_cat_id": 49260,
        "meta_element_set_no": 999,
        "meta_rev_at_epoch": 22560,
        "meta_bstar": 0.00010508,
        "meta_mean_motion_dot": 4.28e-06,
        "meta_mean_motion_ddot": 0,
        "tle_line1": "1 49260U 21088A   25358.77665661  .00000428  00000+0  10508-3 0  9997",
        "tle_line2": "2 49260  98.2078  66.7123 0001116  93.3243 266.8083 14.57109853225606"
      },
      "geometry": {
        "type": "Point",
        "coordinates": [
          -122.5822507556288,
          -49.345592797811626
        ]
      }
    },
    {
      "type": "Feature",
      "properties": {
        "norad_id": 51444,
        "name": "CSG-2",
        "group": "resource",
        "lat": -73.69194427954274,
        "lon": -151.44477780483996,
        "alt_km": 630.7800678750818,
        "timestamp": "2025-12-25T03:55:55.964154+00:00",
        "meta_object_name": "CSG-2",
        "meta_object_id": "2022-008A",
        "meta_epoch": "2025-12-24T20:10:19.202592",
        "meta_mean_motion": 14.82154907,
        "meta_eccentricity": 0.0001456,
        "meta_inclination": 97.8804,
        "meta_ra_of_asc_node": 179.9812,
        "meta_arg_of_pericenter": 81.8287,
        "meta_mean_anomaly": 278.3091,
        "meta_ephemeris_type": 0,
        "meta_classification_type": "U",
        "meta_norad_cat_id": 51444,
        "meta_element_set_no": 999,
        "meta_rev_at_epoch": 21076,
        "meta_bstar": 3.6833e-05,
        "meta_mean_motion_dot": 2.41e-06,
        "meta_mean_motion_ddot": 0,
        "tle_line1": "1 51444U 22008A   25358.84050003  .00000241  00000+0  36833-4 0  9996",
        "tle_line2": "2 51444  97.8804 179.9812 0001456  81.8287 278.3091 14.82154907210760"
      },
      "geometry": {
        "type": "Point",
        "coordinates": [
          -151.44477780483996,
          -73.69194427954274
        ]
      }
    }
  ]
}